OBJECT_NAME,OBJECT_ID,EPOCH,MEAN_MOTION,ECCENTRICITY,INCLINATION,RA_OF_ASC_NODE,ARG_OF_PERICENTER,MEAN_ANOMALY,EPHEMERIS_TYPE,CLASSIFICATION_TYPE,NORAD_CAT_ID,ELEMENT_SET_NO,REV_AT_EPOCH,BSTAR,MEAN_MOTION_DOT,MEAN_MOTION_DDOT
COSMOS 2530 (RODNIK-S 16),2018-097A,2026-05-20T14:31:23.029824,12.42880661,.00208045,82.5156,239.3960,97.0893,263.2554,0,U,43751,999,33886,.52327543E-3,.83E-6,0
COSMOS 2531 (RODNIK-S 17),2018-097B,2026-05-20T15:04:26.608800,12.42911988,.00179663,82.5202,240.4309,114.9083,245.3866,0,U,43752,999,33888,-.87273823E-4,-.2E-7,0
COSMOS 2532 (RODNIK-S 18),2018-097C,2026-05-20T15:45:03.603744,12.42908729,.00193388,82.5146,239.2118,116.8710,243.4349,0,U,43753,999,33885,.10555703E-4,.12E-6,0
MINXSS-2,2018-099A,2026-05-20T10:51:24.747264,15.44912684,.00066966,97.4542,215.9660,16.9082,343.2388,0,U,43758,999,40984,.522822E-3,.24549E-3,0
SIRION PATHFINDER-2,2018-099B,2026-05-20T13:30:21.471264,15.14264907,.00097029,97.4267,190.2795,44.9718,315.2298,0,U,43759,999,40844,.19530541E-3,.3511E-4,0
AISTECHSAT 2,2018-099L,2026-05-20T02:09:15.083424,15.15127386,.00057775,97.4309,188.7423,52.5965,307.5793,0,U,43768,999,40802,.21505908E-3,.3966E-4,0
FOX-1CLIFF (AO-95),2018-099N,2026-05-20T09:54:31.374432,15.26039698,.00104444,97.4395,200.7731,89.4115,270.8320,0,U,43770,999,40898,.31608723E-3,.8077E-4,0
RANGE-A,2018-099R,2026-05-20T01:48:01.703808,15.13114006,.00120967,97.3984,183.4794,86.6760,273.5855,0,U,43773,999,40824,.18267183E-3,.3176E-4,0
SNUSAT-2,2018-099AA,2026-05-20T09:13:37.837344,15.21361536,.00111103,97.4072,194.2023,42.2948,317.9143,0,U,43782,999,40880,.24992126E-3,.554E-4,0
SNUGLITE,2018-099AC,2026-05-20T10:07:11.429184,15.26500980,.00037152,97.3882,194.9861,56.0703,304.0888,0,U,43784,999,40908,.33194556E-3,.8596E-4,0
ITASAT,2018-099AE,2026-05-20T10:01:20.262432,15.18653930,.001439,97.4045,192.4886,91.1121,269.1762,0,U,43786,999,40869,.24131768E-3,.4945E-4,0
EAGLET-I,2018-099AJ,2026-05-20T09:42:56.133504,15.12699791,.00128581,97.4249,190.8113,84.0425,276.2271,0,U,43790,999,40813,.16325203E-3,.2799E-4,0
ESEO,2018-099AL,2026-05-20T08:58:29.825184,15.04154374,.00136864,97.4000,178.9519,72.0814,288.1904,0,U,43792,999,40762,.85401084E-4,.1129E-4,0
THEA,2018-099AQ,2026-05-20T03:53:00.406464,15.33967544,.00076473,97.4449,209.6017,37.3966,322.7807,0,U,43796,999,40839,.39610086E-3,.12955E-3,0
ASTROCAST 0.1,2018-099AS,2026-05-20T03:38:48.875712,15.47532351,.00034006,97.4381,217.8171,326.3048,33.7986,0,U,43798,999,41009,.4913587E-3,.25223E-3,0
JY1SAT (JO-97),2018-099AX,2026-05-20T14:50:47.890176,15.32680744,.00055942,97.4138,203.3752,26.5939,333.5589,0,U,43803,999,40940,.38082297E-3,.11951E-3,0
SUOMI-100,2018-099AY,2026-05-19T03:08:37.126464,15.27679899,.00104246,97.4202,199.6455,32.8550,327.3335,0,U,43804,999,40898,.31255653E-3,.8395E-4,0
CENTAURI-1,2018-099BD,2026-05-20T13:17:29.494176,15.16045779,.00156897,97.4237,192.8702,68.0513,292.2386,0,U,43809,999,40831,.21965766E-3,.417E-4,0
GLOBAL-2,2018-099BG,2026-05-20T08:22:42.798144,15.08488800,.00042379,97.3573,178.0214,240.3109,119.7698,0,U,43812,999,40771,.96034181E-4,.1437E-4,0
SEAHAWK-1,2018-099BQ,2026-05-20T09:38:52.658304,15.22294463,.00094481,97.3972,193.3188,56.2080,304.0055,0,U,43820,999,40830,.26671112E-3,.608E-4,0
SAUDISAT 5A,2018-102A,2026-05-20T14:13:28.542144,15.27729949,.00085364,97.3077,202.7092,223.5525,136.5041,0,U,43831,999,41146,.13568779E-3,.3606E-4,0
SAUDISAT 5B,2018-102C,2026-05-20T14:47:29.896800,15.28003213,.00091851,97.3183,205.7521,226.8382,133.2091,0,U,43833,999,41158,.12697646E-3,.3398E-4,0
ISAT,2018-111D,2026-05-20T13:33:18.209376,15.60371085,.00072101,97.5903,73.7694,67.1598,293.0419,0,U,43879,999,40685,.65005943E-3,.53462E-3,0
UWE-4,2018-111E,2026-05-20T07:17:39.162336,15.44244642,.0010336,97.5864,67.4508,72.5059,287.7318,0,U,43880,999,40647,.49462144E-3,.22718E-3,0
D-STAR ONE (SPARROW),2018-111F,2026-05-20T08:24:53.326080,15.66950588,.00073248,97.6124,78.7202,95.8850,264.3245,0,U,43881,999,40700,.79529892E-3,.84987E-3,0
JILIN-1 09,2019-005B,2026-05-20T14:29:04.184160,15.20238259,.00028117,97.4723,235.8097,152.1255,208.0132,0,U,43943,999,40495,.15384011E-3,.3267E-4,0
JILIN-1 10,2019-005E,2026-05-20T13:52:22.090944,15.25384911,.00085113,97.4767,239.3926,27.2576,332.9107,0,U,43946,999,40510,.15771265E-3,.391E-4,0
EGYPTSAT-A (MISRSAT-A),2019-008A,2026-05-20T14:50:35.469312,14.72272475,.00012456,98.0046,205.7840,80.8971,279.2378,0,U,44047,999,38918,.14588788E-3,.872E-5,0
